[{"OBJECT_NAME":"STARLINK-5381","OBJECT_ID":"2022-177J","EPOCH":"2026-03-09T04:59:00.420864","MEAN_MOTION":15.02534155,"ECCENTRICITY":0.00010759,"INCLINATION":43.0037,"RA_OF_ASC_NODE":135.8794,"ARG_OF_PERICENTER":252.4971,"MEAN_ANOMALY":107.5754,"EPHEMERIS_TYPE":0,"CLASSIFICATION_TYPE":"U","NORAD_CAT_ID":54828,"ELEMENT_SET_NO":999,"REV_AT_EPOCH":17688,"BSTAR":1.7111808e-5,"MEAN_MOTION_DOT":2.8e-7,"MEAN_MOTION_DDOT":0},{"OBJECT_NAME":"NOAA 17 DEB","OBJECT_ID":"2002-032BW","EPOCH":"2026-03-08T22:40:23.580768","MEAN_MOTION":15.05196658,"ECCENTRICITY":0.00149213,"INCLINATION":98.7181,"RA_OF_ASC_NODE":121.0481,"ARG_OF_PERICENTER":217.4424,"MEAN_ANOMALY":142.5761,"EPHEMERIS_TYPE":0,"CLASSIFICATION_TYPE":"U","NORAD_CAT_ID":48737,"ELEMENT_SET_NO":999,"REV_AT_EPOCH":26108,"BSTAR":0.0055556624,"MEAN_MOTION_DOT":0.00080221,"MEAN_MOTION_DDOT":0}]
